STARLINK-2604           
1 48374U 21038X   26068.03940903 -.00013185  00000+0 -43406-3 0  9999
2 48374  53.1609 350.8195 0001104  77.5894 282.5231 15.30183966267122
TOMORROW-S1             
1 60479U 24149M   26068.72470524  .00008620  00000+0  28856-3 0  9996
2 60479  97.3791 149.6044 0001819 207.2040 152.9106 15.31198362 86867
